     3.00           N                   E                   RINEX VERSION / TYPE
BRD_USR             ESA                 20190108 091949  UTCPGM / RUN BY / DATE
 GAL   5.0250E+01  4.2969E-02 -4.6387E-03  0.0000E+00       IONOSPHERIC CORR
GAUT  0.0000000000E+00 0.000000000E+00 172800 2035 GSTB   0 TIME SYSTEM CORR
GPGA -3.7834979594E-10 1.065814104E-14 172800 2035 GSTB   0 TIME SYSTEM CORR
                                                            END OF HEADER
E04 2019 01 08 07 30 00-1.956362975761E-04-7.844391802792E-12 0.000000000000E+00
     7.700000000000E+01 4.087500000000E+01 3.438714664840E-09 2.275620291988E+00
     1.933425664902E-06 7.370999082923E-05 7.601454854012E-06 5.440611452103E+03
     1.998000000000E+05-5.401670932770E-08 1.243503769678E+00 3.539025783539E-08
     9.523353515157E-01 1.744687500000E+02 2.043869577520E+00-5.615591054765E-09
     5.264505002050E-10 2.580000000000E+02 2.035000000000E+03 0.000000000000E+00
     3.120000000000E+00 0.000000000000E+00-8.149072527885E-09 0.000000000000E+00
     2.005000000000E+05 0.000000000000E+00 0.000000000000E+00 0.000000000000E+00
E05 2019 01 08 07 30 00 1.287249033339E-04-6.536993168993E-12 0.000000000000E+00
     7.700000000000E+01 2.781250000000E+01 3.470501703183E-09 1.162004463041E+00
     1.147389411926E-06 1.362845068797E-04 8.044764399529E-06 5.440609889984E+03
     1.998000000000E+05 2.793967723846E-08 1.243438112451E+00 4.842877388000E-08
     9.523051451832E-01 1.640000000000E+02 1.584265884610E+00-5.612733792891E-09
     5.018066165455E-10 2.580000000000E+02 2.035000000000E+03 0.000000000000E+00
     3.120000000000E+00 0.000000000000E+00-1.396983861923E-09 0.000000000000E+00
     2.005000000000E+05 0.000000000000E+00 0.000000000000E+00 0.000000000000E+00
E07 2019 01 08 07 30 00-1.086055417545E-04-7.077005648171E-12 0.000000000000E+00
     7.700000000000E+01 2.065625000000E+01 3.448000765929E-09 3.909214080172E-01
     9.760260581970E-07 1.370259560645E-04 7.726252079010E-06 5.440613048553E+03
     1.998000000000E+05 3.166496753693E-08 1.243454715109E+00-1.676380634308E-08
     9.523354144212E-01 1.681875000000E+02-2.547127629518E-03-5.575232230801E-09
     5.118070331030E-10 2.580000000000E+02 2.035000000000E+03 0.000000000000E+00
     3.120000000000E+00 0.000000000000E+00 2.328306436539E-10 0.000000000000E+00
     2.005000000000E+05 0.000000000000E+00 0.000000000000E+00 0.000000000000E+00
E12 2019 01 08 07 30 00 5.895267706364E-03 8.442668786302E-11 0.000000000000E+00
     7.700000000000E+01-1.084375000000E+02 3.099414817354E-09 1.042321356068E+00
    -5.029141902924E-06 3.781436244026E-04 1.750886440277E-07 5.440603988647E+03
     1.998000000000E+05-3.725290298462E-09-8.617607257818E-01-3.166496753693E-08
     9.819292348254E-01 3.485000000000E+02-8.965521375895E-01-5.819170963257E-09
    -2.110802209099E-10 2.580000000000E+02 2.035000000000E+03 0.000000000000E+00
     3.120000000000E+00 0.000000000000E+00-1.559965312481E-08 0.000000000000E+00
     2.005000000000E+05 0.000000000000E+00 0.000000000000E+00 0.000000000000E+00
E13 2019 01 08 07 30 00 3.814692609012E-04 4.405364961713E-13 0.000000000000E+00
     7.700000000000E+01-8.675000000000E+01 3.135487748507E-09-2.218442084732E+00
    -3.991648554802E-06 3.380684647709E-04-3.762543201447E-07 5.440596256256E+03
     1.998000000000E+05 1.117587089539E-08-8.670415952598E-01 5.029141902924E-08
     9.851556640763E-01 3.604375000000E+02-1.574609093612E+00-5.838457480903E-09
    -1.564350875779E-10 2.580000000000E+02 2.035000000000E+03 0.000000000000E+00
     3.120000000000E+00 5.600000000000E+01-4.190951585770E-09 0.000000000000E+00
     2.005000000000E+05 0.000000000000E+00 0.000000000000E+00 0.000000000000E+00
E15 2019 01 08 07 30 00 9.235442848876E-04-1.065814103640E-12 0.000000000000E+00
     7.700000000000E+01-8.818750000000E+01 3.120487123671E-09-1.348113371065E+00
    -4.118308424950E-06 3.869470674545E-04-4.004687070847E-07 5.440594722748E+03
     1.998000000000E+05-4.284083843231E-08-8.670527295293E-01 2.980232238770E-08
     9.851137192891E-01 3.625000000000E+02-1.662707222864E+00-5.890245352362E-09
    -1.739358165535E-10 2.580000000000E+02 2.035000000000E+03 0.000000000000E+00
     3.120000000000E+00 5.600000000000E+01 1.396983861923E-09 0.000000000000E+00
     2.005000000000E+05 0.000000000000E+00 0.000000000000E+00 0.000000000000E+00
E18 2019 01 08 07 30 00 5.622266035061E-03-2.843592028512E-11 0.000000000000E+00
     7.700000000000E+01 4.678125000000E+01 3.017625696223E-09-1.331587753975E+00
     4.684552550316E-06 1.663994301343E-01 6.090849637985E-07 5.289358589172E+03
     1.998000000000E+05 4.826113581657E-06-1.445564282309E+00 5.431473255157E-06
     8.817784175648E-01 3.278437500000E+02 1.439298046804E+00-3.860875106660E-09
    -9.389676832015E-10 2.580000000000E+02 2.035000000000E+03 0.000000000000E+00
     3.120000000000E+00 5.600000000000E+01 1.420266926289E-08 0.000000000000E+00
     2.005000000000E+05 0.000000000000E+00 0.000000000000E+00 0.000000000000E+00
E19 2019 01 08 07 30 00-9.289360605180E-06 2.842170943040E-13 0.000000000000E+00
     7.700000000000E+01 3.075000000000E+01 3.286208312338E-09 2.843079824909E+00
     1.432374119759E-06 1.326778437942E-04 7.936730980873E-06 5.440613546371E+03
     1.998000000000E+05-2.980232238770E-08 1.240176985709E+00-2.048909664154E-08
     9.580648921169E-01 1.710625000000E+02 2.337038003654E+00-5.554517082217E-09
     4.871631494435E-10 2.580000000000E+02 2.035000000000E+03 0.000000000000E+00
     3.120000000000E+00 0.000000000000E+00-8.614733815193E-09 0.000000000000E+00
     2.005000000000E+05 0.000000000000E+00 0.000000000000E+00 0.000000000000E+00
E21 2019 01 08 07 30 00-5.133765516803E-04-1.918465386552E-12 0.000000000000E+00
     7.700000000000E+01 6.215625000000E+01 2.377241878809E-09-2.201735356921E+00
     2.928078174591E-06 4.781316965818E-05 1.210533082485E-05 5.440631732941E+03
     1.998000000000E+05-4.097819328308E-08-2.949867112983E+00 6.146728992462E-08
     9.898695240618E-01 9.543750000000E+01-2.684114444598E-01-5.053424781140E-09
    -3.064413359402E-10 2.580000000000E+02 2.035000000000E+03 0.000000000000E+00
     3.120000000000E+00 0.000000000000E+00-2.328306436539E-09 0.000000000000E+00
     2.005000000000E+05 0.000000000000E+00 0.000000000000E+00 0.000000000000E+00
E27 2019 01 08 07 30 00 5.540321581066E-04-7.688072400924E-12 0.000000000000E+00
     7.700000000000E+01 6.446875000000E+01 2.357241045694E-09-7.753640785118E-01
     2.959743142128E-06 2.079294063151E-04 1.238845288754E-05 5.440633657455E+03
     1.998000000000E+05-6.705522537231E-08-2.949850614193E+00-4.842877388000E-08
     9.898422172329E-01 8.656250000000E+01-9.079377349539E-01-5.059853620356E-09
    -3.721583590323E-10 2.580000000000E+02 2.035000000000E+03 0.000000000000E+00
     3.120000000000E+00 0.000000000000E+00-2.793967723846E-09 0.000000000000E+00
     2.005000000000E+05 0.000000000000E+00 0.000000000000E+00 0.000000000000E+00
E30 2019 01 08 07 30 00 5.205603840295E-03-3.049649421882E-11 0.000000000000E+00
     7.700000000000E+01 7.803125000000E+01 2.456173738066E-09-1.420459761039E+00
     3.667548298836E-06 2.999055432156E-04 1.238845288754E-05 5.440620903015E+03
     1.998000000000E+05 3.725290298462E-09-2.943847209475E+00 1.229345798492E-07
     9.878572085608E-01 8.234375000000E+01 5.026740638782E-01-5.193073455211E-09
    -4.135886561991E-10 2.580000000000E+02 2.035000000000E+03 0.000000000000E+00
     3.120000000000E+00 0.000000000000E+00-3.259629011154E-09 0.000000000000E+00
     2.005000000000E+05 0.000000000000E+00 0.000000000000E+00 0.000000000000E+00
E33 2019 01 08 07 30 00 8.478816598654E-04 1.136868377216E-13 0.000000000000E+00
     7.700000000000E+01-9.784375000000E+01 3.011911172476E-09 2.406912028427E+00
    -4.559755325317E-06 3.600412746891E-04 1.788139343262E-07 5.440599700928E+03
     1.998000000000E+05 6.519258022308E-08-8.670776576534E-01-5.774199962616E-08
     9.851516995683E-01 3.475312500000E+02-1.490371071206E+00-5.838100323169E-09
    -1.996511734156E-10 2.580000000000E+02 2.035000000000E+03 0.000000000000E+00
     3.120000000000E+00 5.600000000000E+01-8.149072527885E-09 0.000000000000E+00
     2.005000000000E+05 0.000000000000E+00 0.000000000000E+00 0.000000000000E+00
E02 2019 01 08 07 30 00 4.244287265465E-05 1.563194018672E-12 0.000000000000E+00
     7.700000000000E+01 8.437500000000E+01 2.308310436109E-09 1.284014916147E-01
     3.999099135399E-06 2.692634006962E-04 1.255236566067E-05 5.440623451233E+03
     1.998000000000E+05 1.303851604462E-08-2.947293180305E+00-3.911554813385E-08
     9.903142365287E-01 8.246875000000E+01-2.602788283094E-01-5.026280793341E-09
    -3.543004723225E-10 5.210000000000E+02 2.035000000000E+03 0.000000000000E+00
     3.120000000000E+00 0.000000000000E+00-6.286427378654E-09-7.683411240578E-09
     2.005150000000E+05 0.000000000000E+00 0.000000000000E+00 0.000000000000E+00
E11 2019 01 08 07 10 00 5.719303502701E-03 1.008970684779E-12 0.000000000000E+00
     7.500000000000E+01-1.116250000000E+02 3.170846364193E-09-4.371570743526E-01
    -5.133450031281E-06 2.484540455043E-04 2.793967723846E-08 5.440603017807E+03
     1.986000000000E+05-6.146728992462E-08-8.617378676868E-01-9.313225746155E-09
     9.819148748216E-01 3.518750000000E+02-3.694970049305E-01-5.899174295717E-09
    -1.821504444400E-10 5.210000000000E+02 2.035000000000E+03 0.000000000000E+00
     3.120000000000E+00 0.000000000000E+00-1.839362084866E-08-2.002343535423E-08
     2.005150000000E+05 0.000000000000E+00 0.000000000000E+00 0.000000000000E+00
